[{"OBJECT_NAME":"HISAKI (SPRINT-A)","OBJECT_ID":"2013-049A","EPOCH":"2026-03-09T22:09:18.719712","MEAN_MOTION":13.55530561,"ECCENTRICITY":0.01366264,"INCLINATION":29.7223,"RA_OF_ASC_NODE":4.6706,"ARG_OF_PERICENTER":291.9905,"MEAN_ANOMALY":66.62,"EPHEMERIS_TYPE":0,"CLASSIFICATION_TYPE":"U","NORAD_CAT_ID":39253,"ELEMENT_SET_NO":999,"REV_AT_EPOCH":61794,"BSTAR":6.2697176e-5,"MEAN_MOTION_DOT":1.12e-6,"MEAN_MOTION_DDOT":0},{"OBJECT_NAME":"UNKNOWN","OBJECT_ID":"","EPOCH":"2026-03-08T11:21:41.929344","MEAN_MOTION":13.91703847,"ECCENTRICITY":0.0226488,"INCLINATION":98.7717,"RA_OF_ASC_NODE":301.097,"ARG_OF_PERICENTER":251.1413,"MEAN_ANOMALY":106.5065,"EPHEMERIS_TYPE":0,"CLASSIFICATION_TYPE":"U","NORAD_CAT_ID":89213,"ELEMENT_SET_NO":999,"REV_AT_EPOCH":46459,"BSTAR":0.00037526,"MEAN_MOTION_DOT":5.45e-6,"MEAN_MOTION_DDOT":0}]
